0 COSMOS 1275 DEB
1 18592U 81053LZ  13283.13010076  .00001537  00000-0  85102-3 0  6696
2 18592 082.9472 164.0032 0016871 026.3283 100.5972 14.10673712955489
0 COSMOS 1275 DEB
1 18592U 81053LZ  13286.11441008  .00001577  00000-0  87300-3 0  6719
2 18592 082.9468 161.6584 0016734 018.7021 135.0088 14.10682457955906
0 COSMOS 1275 DEB
1 18592U 81053LZ  13287.65019576  .00001975  00000-0  10960-2 0  6720
2 18592 082.9463 160.4515 0016598 014.6997 013.8941 14.10688897956127
0 COSMOS 1275 DEB
1 18592U 81053LZ  13289.09409818  .00002030  00000-0  11261-2 0  6731
2 18592 082.9462 159.3170 0016487 011.0152 146.1409 14.10696153956326
0 COSMOS 1275 DEB
1 18592U 81053LZ  13290.62920954  .00002024  00000-0  11228-2 0  6748
2 18592 082.9460 158.1106 0016359 007.0903 021.5955 14.10701298956540
0 COSMOS 1275 DEB
1 18592U 81053LZ  13292.07463762  .00002184  00000-0  12121-2 0  6759
2 18592 082.9458 156.9747 0016420 002.5181 162.5389 14.10704436956747
0 COSMOS 1275 DEB
1 18592U 81053LZ  13293.60833471  .00002149  00000-0  11925-2 0  6760
2 18592 082.9459 155.7692 0016080 359.3870 030.0796 14.10710930956965
0 COSMOS 1275 DEB
1 18592U 81053LZ  13296.04434209  .00002277  00000-0  12641-2 0  6776
2 18592 082.9459 153.8547 0015843 352.9894 160.7087 14.10721763957303
